start=new Date('2022-01-24T00:00:00.000Z').valueOf();
sats=[{"TIME_SYSTEM":"UTC","REF_FRAME":"TEME","ECCENTRICITY":"0.00012290","PERIAPSIS":"546.383","PERIOD":"95.593","BSTAR":"0.00009656500000","EPHEMERIS_TYPE":"0","TLE_LINE1":"1 48579U 21041AC  22023.77344584  .00001157  00000-0  96565-4 0  9991","ARG_OF_PERICENTER":"80.8318","LAUNCH_DATE":"2021-05-15","SEMIMAJOR_AXIS":"6925.370","INCLINATION":"53.0549","MEAN_MOTION_DOT":"0.00001157","OBJECT_NAME":"STARLINK-2233","SITE":"AFETR","TLE_LINE2":"2 48579  53.0549  51.9497 0001229  80.8318 279.2809 15.06393151 38673","MEAN_MOTION":"15.06393151","COUNTRY_CODE":"US","NORAD_CAT_ID":"48579","CLASSIFICATION_TYPE":"U","CENTER_NAME":"EARTH","MEAN_MOTION_DDOT":"0.0000000000000","REV_AT_EPOCH":"3867","DECAY_DATE":null,"GP_ID":"194470533","OBJECT_TYPE":"PAYLOAD","RA_OF_ASC_NODE":"51.9497","MEAN_ANOMALY":"279.2809","OBJECT_ID":"2021-041AC","FILE":"3281083","RCS_SIZE":"LARGE","APOAPSIS":"548.086","ELEMENT_SET_NO":"999","EPOCH":"2022-01-23T18:33:45.720576","MEAN_ELEMENT_THEORY":"SGP4"},{"SITE":"AFETR","OBJECT_NAME":"STARLINK-2234","TLE_LINE2":"2 48580  53.0557  27.7994 0001336  87.8822 143.3377 15.06424011  3586","COUNTRY_CODE":"US","MEAN_MOTION":"15.06424011","NORAD_CAT_ID":"48580","CLASSIFICATION_TYPE":"U","CENTER_NAME":"EARTH","MEAN_MOTION_DDOT":"0.0000000000000","REV_AT_EPOCH":"358","OBJECT_TYPE":"PAYLOAD","RA_OF_ASC_NODE":"27.7994","DECAY_DATE":null,"GP_ID":"194465738","MEAN_ANOMALY":"143.3377","RCS_SIZE":"LARGE","ELEMENT_SET_NO":"999","APOAPSIS":"548.065","EPOCH":"2022-01-23T14:00:01.000224","MEAN_ELEMENT_THEORY":"SGP4","OBJECT_ID":"2021-041AD","FILE":"3280923","TIME_SYSTEM":"UTC","REF_FRAME":"TEME","ECCENTRICITY":"0.00013360","PERIAPSIS":"546.215","PERIOD":"95.591","BSTAR":"-0.00070401000000","TLE_LINE1":"1 48580U 21041AD  22023.58334491 -.00010759  00000-0 -70401-3 0  9998","ARG_OF_PERICENTER":"87.8822","EPHEMERIS_TYPE":"0","SEMIMAJOR_AXIS":"6925.275","LAUNCH_DATE":"2021-05-15","INCLINATION":"53.0557","MEAN_MOTION_DOT":"-0.00010759"},{"INCLINATION":"53.0616","MEAN_MOTION_DOT":"-0.00008410","TLE_LINE1":"1 48581U 21041AE  22023.91667824 -.00008410  00000-0 -54607-3 0  9996","ARG_OF_PERICENTER":"69.2880","EPHEMERIS_TYPE":"0","SEMIMAJOR_AXIS":"6925.297","LAUNCH_DATE":"2021-05-15","PERIAPSIS":"546.043","PERIOD":"95.591","BSTAR":"-0.00054607000000","TIME_SYSTEM":"UTC","REF_FRAME":"TEME","ECCENTRICITY":"0.00016160","MEAN_ANOMALY":"25.6594","APOAPSIS":"548.281","RCS_SIZE":"LARGE","ELEMENT_SET_NO":"999","EPOCH":"2022-01-23T22:00:00.999936","MEAN_ELEMENT_THEORY":"SGP4","OBJECT_ID":"2021-041AE","FILE":"3281083","MEAN_MOTION_DDOT":"0.0000000000000","REV_AT_EPOCH":"3919","OBJECT_TYPE":"PAYLOAD","RA_OF_ASC_NODE":"16.2723","DECAY_DATE":null,"GP_ID":"194471022","COUNTRY_CODE":"US","MEAN_MOTION":"15.06416838","NORAD_CAT_ID":"48581","CLASSIFICATION_TYPE":"U","CENTER_NAME":"EARTH","SITE":"AFETR","OBJECT_NAME":"STARLINK-2235","TLE_LINE2":"2 48581  53.0616  16.2723 0001616  69.2880  25.6594 15.06416838 39192"},{"PERIOD":"95.592","BSTAR":"0.00114110000000","PERIAPSIS":"545.975","REF_FRAME":"TEME","ECCENTRICITY":"0.00017540","TIME_SYSTEM":"UTC","MEAN_MOTION_DOT":"0.00016760","INCLINATION":"53.0550","LAUNCH_DATE":"2021-05-15","SEMIMAJOR_AXIS":"6925.324","EPHEMERIS_TYPE":"0","TLE_LINE1":"1 48582U 21041AF  22023.91667824  .00016760  00000-0  11411-2 0  9997","ARG_OF_PERICENTER":"66.2250","CLASSIFICATION_TYPE":"U","CENTER_NAME":"EARTH","MEAN_MOTION":"15.06407880","COUNTRY_CODE":"US","NORAD_CAT_ID":"48582","TLE_LINE2":"2 48582  53.0550  16.2892 0001754  66.2250 208.6743 15.06407880 39194","OBJECT_NAME":"STARLINK-2236","SITE":"AFETR","OBJECT_ID":"2021-041AF","FILE":"3281087","ELEMENT_SET_NO":"999","RCS_SIZE":"LARGE","APOAPSIS":"548.404","EPOCH":"2022-01-23T22:00:00.999936","MEAN_ELEMENT_THEORY":"SGP4","MEAN_ANOMALY":"208.6743","DECAY_DATE":null,"GP_ID":"194471092","OBJECT_TYPE":"PAYLOAD","RA_OF_ASC_NODE":"16.2892","MEAN_MOTION_DDOT":"0.0000000000000","REV_AT_EPOCH":"3919"},{"RA_OF_ASC_NODE":"63.5284","OBJECT_TYPE":"PAYLOAD","GP_ID":"194465489","DECAY_DATE":null,"REV_AT_EPOCH":"3803","MEAN_MOTION_DDOT":"0.0000000000000","MEAN_ELEMENT_THEORY":"SGP4","RCS_SIZE":"LARGE","APOAPSIS":"548.180","ELEMENT_SET_NO":"999","EPOCH":"2022-01-23T10:08:12.618528","FILE":"3280923","OBJECT_ID":"2021-041AG","MEAN_ANOMALY":"278.8625","TLE_LINE2":"2 48583  53.0560  63.5284 0001368  81.2519 278.8625 15.06393630 38039","SITE":"AFETR","OBJECT_NAME":"STARLINK-2237","CENTER_NAME":"EARTH","CLASSIFICATION_TYPE":"U","NORAD_CAT_ID":"48583","COUNTRY_CODE":"US","MEAN_MOTION":"15.06393630","SEMIMAJOR_AXIS":"6925.368","LAUNCH_DATE":"2021-05-15","ARG_OF_PERICENTER":"81.2519","TLE_LINE1":"1 48583U 21041AG  22023.42236827  .00002723  00000-0  20169-3 0  9994","EPHEMERIS_TYPE":"0","MEAN_MOTION_DOT":"0.00002723","INCLINATION":"53.0560","ECCENTRICITY":"0.00013680","REF_FRAME":"TEME","TIME_SYSTEM":"UTC","BSTAR":"0.00020169000000","PERIOD":"95.593","PERIAPSIS":"546.286"},{"PERIOD":"95.592","BSTAR":"0.00007131700000","PERIAPSIS":"546.289","REF_FRAME":"TEME","ECCENTRICITY":"0.00013570","TIME_SYSTEM":"UTC","MEAN_MOTION_DOT":"0.00000781","INCLINATION":"53.0569","SEMIMAJOR_AXIS":"6925.363","LAUNCH_DATE":"2021-05-15","TLE_LINE1":"1 48584U 21041AH  22023.52924332  .00000781  00000-0  71317-4 0  9995","ARG_OF_PERICENTER":"77.5487","EPHEMERIS_TYPE":"0","CLASSIFICATION_TYPE":"U","CENTER_NAME":"EARTH","COUNTRY_CODE":"US","MEAN_MOTION":"15.06395129","NORAD_CAT_ID":"48584","TLE_LINE2":"2 48584  53.0569  63.0400 0001357  77.5487 282.5654 15.06395129 38044","SITE":"AFETR","OBJECT_NAME":"STARLINK-2238","APOAPSIS":"548.168","RCS_SIZE":"LARGE","EPOCH":"2022-01-23T12:42:06.622848","ELEMENT_SET_NO":"999","MEAN_ELEMENT_THEORY":"SGP4","OBJECT_ID":"2021-041AH","FILE":"3280923","MEAN_ANOMALY":"282.5654","OBJECT_TYPE":"PAYLOAD","RA_OF_ASC_NODE":"63.0400","DECAY_DATE":null,"GP_ID":"194465239","MEAN_MOTION_DDOT":"0.0000000000000","REV_AT_EPOCH":"3804"},{"RA_OF_ASC_NODE":"62.9917","OBJECT_TYPE":"PAYLOAD","GP_ID":"194466490","DECAY_DATE":null,"REV_AT_EPOCH":"3804","MEAN_MOTION_DDOT":"0.0000000000000","MEAN_ELEMENT_THEORY":"SGP4","RCS_SIZE":"LARGE","APOAPSIS":"548.344","ELEMENT_SET_NO":"999","EPOCH":"2022-01-23T12:58:03.044928","FILE":"3280923","OBJECT_ID":"2021-041AJ","MEAN_ANOMALY":"286.9173","TLE_LINE2":"2 48585  53.0562  62.9917 0001556  73.1986 286.9173 15.06382660 38046","SITE":"AFETR","OBJECT_NAME":"STARLINK-2240","CLASSIFICATION_TYPE":"U","CENTER_NAME":"EARTH","NORAD_CAT_ID":"48585","COUNTRY_CODE":"US","MEAN_MOTION":"15.06382660","SEMIMAJOR_AXIS":"6925.402","LAUNCH_DATE":"2021-05-15","ARG_OF_PERICENTER":"73.1986","TLE_LINE1":"1 48585U 21041AJ  22023.54031302  .00003365  00000-0  24482-3 0  9995","EPHEMERIS_TYPE":"0","MEAN_MOTION_DOT":"0.00003365","INCLINATION":"53.0562","ECCENTRICITY":"0.00015560","REF_FRAME":"TEME","TIME_SYSTEM":"UTC","BSTAR":"0.00024482000000","PERIOD":"95.593","PERIAPSIS":"546.189"},{"MEAN_ANOMALY":"281.6922","RCS_SIZE":"LARGE","ELEMENT_SET_NO":"999","APOAPSIS":"548.041","EPOCH":"2022-01-23T19:09:36.103392","MEAN_ELEMENT_THEORY":"SGP4","OBJECT_ID":"2021-041AK","FILE":"3281101","MEAN_MOTION_DDOT":"0.0000000000000","REV_AT_EPOCH":"3848","OBJECT_TYPE":"PAYLOAD","RA_OF_ASC_NODE":"61.8298","DECAY_DATE":null,"GP_ID":"194470812","MEAN_MOTION":"15.06389989","COUNTRY_CODE":"US","NORAD_CAT_ID":"48586","CLASSIFICATION_TYPE":"U","CENTER_NAME":"EARTH","SITE":"AFETR","OBJECT_NAME":"STARLINK-2241","TLE_LINE2":"2 48586  53.0559  61.8298 0001150  78.4196 281.6922 15.06389989 38487","INCLINATION":"53.0559","MEAN_MOTION_DOT":"0.00002754","TLE_LINE1":"1 48586U 21041AK  22023.79833453  .00002754  00000-0  20373-3 0  9996","ARG_OF_PERICENTER":"78.4196","EPHEMERIS_TYPE":"0","SEMIMAJOR_AXIS":"6925.379","LAUNCH_DATE":"2021-05-15","PERIAPSIS":"546.448","PERIOD":"95.593","BSTAR":"0.00020373000000","TIME_SYSTEM":"UTC","REF_FRAME":"TEME","ECCENTRICITY":"0.00011500"},{"TLE_LINE2":"2 48587  53.0558  62.9935 0001428  71.8084 288.3060 15.06408504 38042","OBJECT_NAME":"STARLINK-2242","SITE":"AFETR","CENTER_NAME":"EARTH","CLASSIFICATION_TYPE":"U","MEAN_MOTION":"15.06408504","COUNTRY_CODE":"US","NORAD_CAT_ID":"48587","DECAY_DATE":null,"GP_ID":"194464990","OBJECT_TYPE":"PAYLOAD","RA_OF_ASC_NODE":"62.9935","MEAN_MOTION_DDOT":"0.0000000000000","REV_AT_EPOCH":"3804","OBJECT_ID":"2021-041AL","FILE":"3280923","RCS_SIZE":"LARGE","APOAPSIS":"548.176","EPOCH":"2022-01-23T12:56:40.662528","ELEMENT_SET_NO":"999","MEAN_ELEMENT_THEORY":"SGP4","MEAN_ANOMALY":"288.3060","REF_FRAME":"TEME","ECCENTRICITY":"0.00014280","TIME_SYSTEM":"UTC","PERIOD":"95.592","BSTAR":"0.00027657000000","PERIAPSIS":"546.199","LAUNCH_DATE":"2021-05-15","SEMIMAJOR_AXIS":"6925.322","EPHEMERIS_TYPE":"0","TLE_LINE1":"1 48587U 21041AL  22023.53935952  .00003841  00000-0  27657-3 0  9996","ARG_OF_PERICENTER":"71.8084","MEAN_MOTION_DOT":"0.00003841","INCLINATION":"53.0558"},{"BSTAR":"0.00007547100000","PERIOD":"95.592","PERIAPSIS":"546.238","ECCENTRICITY":"0.00013990","REF_FRAME":"TEME","TIME_SYSTEM":"UTC","MEAN_MOTION_DOT":"0.00000843","INCLINATION":"53.0539","LAUNCH_DATE":"2021-05-15","SEMIMAJOR_AXIS":"6925.342","EPHEMERIS_TYPE":"0","ARG_OF_PERICENTER":"80.5840","TLE_LINE1":"1 48588U 21041AM  22023.44908301  .00000843  00000-0  75471-4 0  9992","CLASSIFICATION_TYPE":"U","CENTER_NAME":"EARTH","NORAD_CAT_ID":"48588","COUNTRY_CODE":"US","MEAN_MOTION":"15.06402285","TLE_LINE2":"2 48588  53.0539  53.4029 0001399  80.5840 279.5307 15.06402285 38175","OBJECT_NAME":"STARLINK-2244","SITE":"AFETR","FILE":"3280923","OBJECT_ID":"2021-041AM","MEAN_ELEMENT_THEORY":"SGP4","APOAPSIS":"548.175","RCS_SIZE":"LARGE","ELEMENT_SET_NO":"999","EPOCH":"2022-01-23T10:46:40.772064","MEAN_ANOMALY":"279.5307","GP_ID":"194465739","DECAY_DATE":null,"RA_OF_ASC_NODE":"53.4029","OBJECT_TYPE":"PAYLOAD","REV_AT_EPOCH":"3817","MEAN_MOTION_DDOT":"0.0000000000000"}];
